start=new Date('2022-07-13T00:00:00.000Z').valueOf();
sats=[{"ECCENTRICITY":"0.00015020","MEAN_MOTION_DOT":"0.00006034","RA_OF_ASC_NODE":"72.7142","LAUNCH_DATE":"2020-06-13","TLE_LINE2":"2 45783  53.0547  72.7142 0001502  75.9600 284.1556 15.06423590116364","CLASSIFICATION_TYPE":"U","SEMIMAJOR_AXIS":"6925.276","MEAN_ANOMALY":"284.1556","COUNTRY_CODE":"US","SITE":"AFETR","ARG_OF_PERICENTER":"75.9600","PERIOD":"95.591","MEAN_MOTION_DDOT":"0.0000000000000","REF_FRAME":"TEME","RCS_SIZE":"LARGE","TIME_SYSTEM":"UTC","BSTAR":"0.00042338000000","OBJECT_ID":"2020-038BF","NORAD_CAT_ID":"45783","INCLINATION":"53.0547","CENTER_NAME":"EARTH","REV_AT_EPOCH":"11636","DECAY_DATE":null,"APOAPSIS":"548.181","GP_ID":"208003442","OBJECT_NAME":"STARLINK-1505","FILE":"3512496","MEAN_ELEMENT_THEORY":"SGP4","PERIAPSIS":"546.101","OBJECT_TYPE":"PAYLOAD","TLE_LINE1":"1 45783U 20038BF  22194.01177078  .00006034  00000-0  42338-3 0  9995","EPHEMERIS_TYPE":"0","EPOCH":"2022-07-13T00:16:56.995392","ELEMENT_SET_NO":"999","MEAN_MOTION":"15.06423590"},{"ELEMENT_SET_NO":"999","MEAN_MOTION":"15.06406557","PERIAPSIS":"546.139","EPOCH":"2022-07-12T20:28:43.455936","TLE_LINE1":"1 45784U 20038BG  22193.85328074  .00002466  00000-0  18436-3 0  9998","EPHEMERIS_TYPE":"0","OBJECT_TYPE":"PAYLOAD","MEAN_ELEMENT_THEORY":"SGP4","OBJECT_NAME":"STARLINK-1510","FILE":"3512432","GP_ID":"207995708","DECAY_DATE":null,"REV_AT_EPOCH":"11541","APOAPSIS":"548.248","INCLINATION":"53.0537","CENTER_NAME":"EARTH","NORAD_CAT_ID":"45784","OBJECT_ID":"2020-038BG","TIME_SYSTEM":"UTC","BSTAR":"0.00018436000000","RCS_SIZE":"LARGE","REF_FRAME":"TEME","MEAN_MOTION_DDOT":"0.0000000000000","COUNTRY_CODE":"US","MEAN_ANOMALY":"299.5652","PERIOD":"95.592","ARG_OF_PERICENTER":"60.5489","SITE":"AFETR","LAUNCH_DATE":"2020-06-13","SEMIMAJOR_AXIS":"6925.328","CLASSIFICATION_TYPE":"U","TLE_LINE2":"2 45784  53.0537  73.4142 0001523  60.5489 299.5652 15.06406557115416","MEAN_MOTION_DOT":"0.00002466","ECCENTRICITY":"0.00015230","RA_OF_ASC_NODE":"73.4142"},{"ARG_OF_PERICENTER":"62.4941","SITE":"AFETR","PERIOD":"95.591","MEAN_ANOMALY":"297.6208","COUNTRY_CODE":"US","MEAN_MOTION_DDOT":"0.0000000000000","REF_FRAME":"TEME","RA_OF_ASC_NODE":"72.6129","ECCENTRICITY":"0.00015770","MEAN_MOTION_DOT":"0.00003774","TLE_LINE2":"2 45785  53.0564  72.6129 0001577  62.4941 297.6208 15.06414909116367","CLASSIFICATION_TYPE":"U","SEMIMAJOR_AXIS":"6925.303","LAUNCH_DATE":"2020-06-13","OBJECT_ID":"2020-038BH","NORAD_CAT_ID":"45785","RCS_SIZE":"LARGE","BSTAR":"0.00027202000000","TIME_SYSTEM":"UTC","APOAPSIS":"548.260","REV_AT_EPOCH":"11636","DECAY_DATE":null,"GP_ID":"208003952","INCLINATION":"53.0564","CENTER_NAME":"EARTH","TLE_LINE1":"1 45785U 20038BH  22194.03388698  .00003774  00000-0  27202-3 0  9992","OBJECT_TYPE":"PAYLOAD","EPHEMERIS_TYPE":"0","EPOCH":"2022-07-13T00:48:47.835072","PERIAPSIS":"546.076","MEAN_MOTION":"15.06414909","ELEMENT_SET_NO":"999","FILE":"3512497","OBJECT_NAME":"STARLINK-1512","MEAN_ELEMENT_THEORY":"SGP4"},{"INCLINATION":"53.0543","CENTER_NAME":"EARTH","APOAPSIS":"548.131","DECAY_DATE":null,"REV_AT_EPOCH":"11542","GP_ID":"207996709","MEAN_ELEMENT_THEORY":"SGP4","FILE":"3512432","OBJECT_NAME":"STARLINK-1513","EPOCH":"2022-07-12T21:16:28.609536","OBJECT_TYPE":"PAYLOAD","TLE_LINE1":"1 45786U 20038BJ  22193.88644224  .00012046  00000-0  82592-3 0  9990","EPHEMERIS_TYPE":"0","PERIAPSIS":"546.210","MEAN_MOTION":"15.06413990","ELEMENT_SET_NO":"999","RA_OF_ASC_NODE":"73.2891","MEAN_MOTION_DOT":"0.00012046","ECCENTRICITY":"0.00013870","SEMIMAJOR_AXIS":"6925.306","CLASSIFICATION_TYPE":"U","TLE_LINE2":"2 45786  53.0543  73.2891 0001387  65.8121 294.3013 15.06413990115427","LAUNCH_DATE":"2020-06-13","PERIOD":"95.591","SITE":"AFETR","ARG_OF_PERICENTER":"65.8121","COUNTRY_CODE":"US","MEAN_ANOMALY":"294.3013","REF_FRAME":"TEME","MEAN_MOTION_DDOT":"0.0000000000000","RCS_SIZE":"LARGE","BSTAR":"0.00082592000000","TIME_SYSTEM":"UTC","NORAD_CAT_ID":"45786","OBJECT_ID":"2020-038BJ"},{"REV_AT_EPOCH":"11541","DECAY_DATE":null,"APOAPSIS":"548.334","GP_ID":"207996943","INCLINATION":"53.0561","CENTER_NAME":"EARTH","PERIAPSIS":"545.948","EPHEMERIS_TYPE":"0","TLE_LINE1":"1 45787U 20038BK  22193.82747968  .00007534  00000-0  52380-3 0  9992","OBJECT_TYPE":"PAYLOAD","EPOCH":"2022-07-12T19:51:34.244352","ELEMENT_SET_NO":"999","MEAN_MOTION":"15.06423705","OBJECT_NAME":"STARLINK-1517","FILE":"3512432","MEAN_ELEMENT_THEORY":"SGP4","MEAN_ANOMALY":"279.6377","COUNTRY_CODE":"US","SITE":"AFETR","ARG_OF_PERICENTER":"80.4807","PERIOD":"95.591","MEAN_MOTION_DDOT":"0.0000000000000","REF_FRAME":"TEME","ECCENTRICITY":"0.00017230","MEAN_MOTION_DOT":"0.00007534","RA_OF_ASC_NODE":"73.5520","LAUNCH_DATE":"2020-06-13","TLE_LINE2":"2 45787  53.0561  73.5520 0001723  80.4807 279.6377 15.06423705115411","CLASSIFICATION_TYPE":"U","SEMIMAJOR_AXIS":"6925.276","OBJECT_ID":"2020-038BK","NORAD_CAT_ID":"45787","RCS_SIZE":"LARGE","TIME_SYSTEM":"UTC","BSTAR":"0.00052380000000"},{"PERIAPSIS":"546.092","OBJECT_TYPE":"PAYLOAD","TLE_LINE1":"1 46027U 20055A   22193.80075274  .00011098  00000-0  76227-3 0  9997","EPHEMERIS_TYPE":"0","EPOCH":"2022-07-12T19:13:05.036736","ELEMENT_SET_NO":"999","MEAN_MOTION":"15.06425133","FILE":"3512432","OBJECT_NAME":"STARLINK-1522","MEAN_ELEMENT_THEORY":"SGP4","REV_AT_EPOCH":"10753","DECAY_DATE":null,"APOAPSIS":"548.181","GP_ID":"207996967","CENTER_NAME":"EARTH","INCLINATION":"53.0558","OBJECT_ID":"2020-055A","NORAD_CAT_ID":"46027","RCS_SIZE":"LARGE","TIME_SYSTEM":"UTC","BSTAR":"0.00076227000000","MEAN_ANOMALY":"274.6085","COUNTRY_CODE":"US","SITE":"AFETR","ARG_OF_PERICENTER":"85.5076","PERIOD":"95.591","MEAN_MOTION_DDOT":"0.0000000000000","REF_FRAME":"TEME","ECCENTRICITY":"0.00015080","MEAN_MOTION_DOT":"0.00011098","RA_OF_ASC_NODE":"3.6502","LAUNCH_DATE":"2020-08-07","TLE_LINE2":"2 46027  53.0558   3.6502 0001508  85.5076 274.6085 15.06425133107536","SEMIMAJOR_AXIS":"6925.272","CLASSIFICATION_TYPE":"U"},{"FILE":"3512432","OBJECT_NAME":"STARLINK-1523","MEAN_ELEMENT_THEORY":"SGP4","PERIAPSIS":"546.092","EPHEMERIS_TYPE":"0","TLE_LINE1":"1 46028U 20055B   22193.88184072  .00008424  00000-0  58330-3 0  9997","OBJECT_TYPE":"PAYLOAD","EPOCH":"2022-07-12T21:09:51.038208","ELEMENT_SET_NO":"999","MEAN_MOTION":"15.06426632","CENTER_NAME":"EARTH","INCLINATION":"53.0548","REV_AT_EPOCH":"10756","DECAY_DATE":null,"APOAPSIS":"548.171","GP_ID":"207996232","RCS_SIZE":"LARGE","TIME_SYSTEM":"UTC","BSTAR":"0.00058330000000","OBJECT_ID":"2020-055B","NORAD_CAT_ID":"46028","ECCENTRICITY":"0.00015010","MEAN_MOTION_DOT":"0.00008424","RA_OF_ASC_NODE":"3.2805","LAUNCH_DATE":"2020-08-07","TLE_LINE2":"2 46028  53.0548   3.2805 0001501  88.8166 271.2995 15.06426632107568","SEMIMAJOR_AXIS":"6925.267","CLASSIFICATION_TYPE":"U","MEAN_ANOMALY":"271.2995","COUNTRY_CODE":"US","SITE":"AFETR","ARG_OF_PERICENTER":"88.8166","PERIOD":"95.590","MEAN_MOTION_DDOT":"0.0000000000000","REF_FRAME":"TEME"},{"REF_FRAME":"TEME","MEAN_MOTION_DDOT":"0.0000000000000","ARG_OF_PERICENTER":"72.5838","SITE":"AFETR","PERIOD":"95.592","MEAN_ANOMALY":"287.5290","COUNTRY_CODE":"US","TLE_LINE2":"2 46029  53.0548   3.9172 0001267  72.5838 287.5290 15.06394852107531","CLASSIFICATION_TYPE":"U","SEMIMAJOR_AXIS":"6925.364","LAUNCH_DATE":"2020-08-07","RA_OF_ASC_NODE":"3.9172","ECCENTRICITY":"0.00012670","MEAN_MOTION_DOT":"0.00002284","OBJECT_ID":"2020-055C","NORAD_CAT_ID":"46029","BSTAR":"0.00017220000000","TIME_SYSTEM":"UTC","RCS_SIZE":"LARGE","GP_ID":"207996481","APOAPSIS":"548.107","REV_AT_EPOCH":"10753","DECAY_DATE":null,"INCLINATION":"53.0548","CENTER_NAME":"EARTH","MEAN_MOTION":"15.06394852","ELEMENT_SET_NO":"999","TLE_LINE1":"1 46029U 20055C   22193.74177109  .00002284  00000-0  17220-3 0  9997","EPHEMERIS_TYPE":"0","OBJECT_TYPE":"PAYLOAD","EPOCH":"2022-07-12T17:48:09.022176","PERIAPSIS":"546.352","OBJECT_NAME":"STARLINK-1526","FILE":"3512432","MEAN_ELEMENT_THEORY":"SGP4"},{"RA_OF_ASC_NODE":"3.8462","ECCENTRICITY":"0.00015380","MEAN_MOTION_DOT":"0.00000145","TLE_LINE2":"2 46030  53.0571   3.8462 0001538  85.4134 274.7031 15.06408371107491","CLASSIFICATION_TYPE":"U","SEMIMAJOR_AXIS":"6925.323","LAUNCH_DATE":"2020-08-07","ARG_OF_PERICENTER":"85.4134","SITE":"AFETR","PERIOD":"95.592","MEAN_ANOMALY":"274.7031","COUNTRY_CODE":"US","MEAN_MOTION_DDOT":"0.0000000000000","REF_FRAME":"TEME","RCS_SIZE":"LARGE","BSTAR":"0.00002865900000","TIME_SYSTEM":"UTC","OBJECT_ID":"2020-055D","NORAD_CAT_ID":"46030","INCLINATION":"53.0571","CENTER_NAME":"EARTH","APOAPSIS":"548.253","REV_AT_EPOCH":"10749","DECAY_DATE":null,"GP_ID":"207997233","FILE":"3512432","OBJECT_NAME":"STARLINK-1534","MEAN_ELEMENT_THEORY":"SGP4","EPHEMERIS_TYPE":"0","TLE_LINE1":"1 46030U 20055D   22193.76020390  .00000145  00000-0  28659-4 0  9993","OBJECT_TYPE":"PAYLOAD","EPOCH":"2022-07-12T18:14:41.616960","PERIAPSIS":"546.123","MEAN_MOTION":"15.06408371","ELEMENT_SET_NO":"999"},{"GP_ID":"207997467","REV_AT_EPOCH":"10753","DECAY_DATE":null,"APOAPSIS":"548.021","INCLINATION":"53.0556","CENTER_NAME":"EARTH","ELEMENT_SET_NO":"999","MEAN_MOTION":"15.06410292","PERIAPSIS":"546.343","TLE_LINE1":"1 46031U 20055E   22193.83024001  .00002634  00000-0  19562-3 0  9992","EPHEMERIS_TYPE":"0","OBJECT_TYPE":"PAYLOAD","EPOCH":"2022-07-12T19:55:32.736864","FILE":"3512432","OBJECT_NAME":"STARLINK-1544","MEAN_ELEMENT_THEORY":"SGP4","MEAN_MOTION_DDOT":"0.0000000000000","REF_FRAME":"TEME","MEAN_ANOMALY":"278.0915","COUNTRY_CODE":"US","SITE":"AFETR","ARG_OF_PERICENTER":"82.0211","PERIOD":"95.591","LAUNCH_DATE":"2020-08-07","TLE_LINE2":"2 46031  53.0556   3.5249 0001211  82.0211 278.0915 15.06410292107530","CLASSIFICATION_TYPE":"U","SEMIMAJOR_AXIS":"6925.317","ECCENTRICITY":"0.00012110","MEAN_MOTION_DOT":"0.00002634","RA_OF_ASC_NODE":"3.5249","OBJECT_ID":"2020-055E","NORAD_CAT_ID":"46031","TIME_SYSTEM":"UTC","BSTAR":"0.00019562000000","RCS_SIZE":"LARGE"}];
